STARLINK-32465          
1 61716U 24196K   26068.36952742  .00000938  00000+0  43803-4 0  9994
2 61716  53.1601 103.1050 0001042 102.3724 257.7394 15.30195036 77100
2025-313BD              
1 67299U 25313BD  26068.62968741  .00081010  00000+0  27634-2 0  9995
2 67299  97.3970 145.2850 0007287 333.4514  26.6352 15.30002360 10838
